{"type":"FeatureCollection","features":[{"type":"Feature","properties":{"icaoId":"KKCI","airSigmetType":"SIGMET","alphaChar":"C","hazard":"CONVECTIVE","seriesId":"23C","validTimeFrom":"2026-07-18T03:55:00.000Z","validTimeTo":"2026-07-18T05:55:00.000Z","severity":5,"altitudeHi1":42000,"altitudeHi2":42000,"altitudeLow1":null,"altitudeLow2":null,"movementDir":30,"movementSpd":5,"rawAirSigmet":"WSUS32 KKCI 180355\nSIGC \nCONVECTIVE SIGMET 23C\nVALID UNTIL 0555Z\nTX NM\nFROM 60S FTI-30SSW TXO-10WSW ELP-40SW DMN-50NW TCS-60S FTI\nAREA TS MOV FROM 03005KT. TOPS TO FL420.\n\nOUTLOOK VALID 180555-180955\nAREA 1...FROM 30NNE CHE-40ENE MAF-70WNW MRF-ELP-30NNE CHE\nWST ISSUANCES EXPD. REFER TO MOST RECENT ACUS01 KWNS FROM STORM\nPREDICTION CENTER FOR SYNOPSIS AND METEOROLOGICAL DETAILS.\n\nAREA 2...FROM 90N SAW-40NW SSM-70NNE ASP-30WNW GIJ-MSL-DLL-30N\nMCW-50WNW MSP-90N SAW\nWST ISSUANCES EXPD. REFER TO MOST RECENT ACUS01 KWNS FROM STORM\nPREDICTION CENTER FOR SYNOPSIS AND METEOROLOGICAL DETAILS."},"geometry":{"type":"Polygon","coordinates":[[[-105.14,34.663],[-103.072,34.035],[-106.465,31.755],[-108.153,31.809],[-107.991,33.869],[-105.14,34.663]]]}},{"type":"Feature","properties":{"icaoId":"KKCI","airSigmetType":"SIGMET","alphaChar":"C","hazard":"CONVECTIVE","seriesId":"24C","validTimeFrom":"2026-07-18T03:55:00.000Z","validTimeTo":"2026-07-18T05:55:00.000Z","severity":5,"altitudeHi1":45000,"altitudeHi2":60000,"altitudeLow1":null,"altitudeLow2":null,"movementDir":340,"movementSpd":15,"rawAirSigmet":"WSUS32 KKCI 180355\nSIGC \nCONVECTIVE SIGMET 24C\nVALID UNTIL 0555Z\nFL AL\nFROM 30S VUZ-30NNE MGM-40ENE CEW-30W CEW-50SE MEI-30S VUZ\nAREA TS MOV FROM 34015KT. TOPS ABV FL450.\n\nOUTLOOK VALID 180555-180955\nAREA 1...FROM 30NNE CHE-40ENE MAF-70WNW MRF-ELP-30NNE CHE\nWST ISSUANCES EXPD. REFER TO MOST RECENT ACUS01 KWNS FROM STORM\nPREDICTION CENTER FOR SYNOPSIS AND METEOROLOGICAL DETAILS.\n\nAREA 2...FROM 90N SAW-40NW SSM-70NNE ASP-30WNW GIJ-MSL-DLL-30N\nMCW-50WNW MSP-90N SAW\nWST ISSUANCES EXPD. REFER TO MOST RECENT ACUS01 KWNS FROM STORM\nPREDICTION CENTER FOR SYNOPSIS AND METEOROLOGICAL DETAILS."},"geometry":{"type":"Polygon","coordinates":[[[-86.9,33.167],[-86.091,32.685],[-85.963,31.082],[-87.266,30.829],[-88.105,31.787],[-86.9,33.167]]]}},{"type":"Feature","properties":{"icaoId":"KKCI","airSigmetType":"SIGMET","alphaChar":"C","hazard":"CONVECTIVE","seriesId":"25C","validTimeFrom":"2026-07-18T03:55:00.000Z","validTimeTo":"2026-07-18T05:55:00.000Z","severity":5,"altitudeHi1":45000,"altitudeHi2":60000,"altitudeLow1":null,"altitudeLow2":null,"movementDir":290,"movementSpd":40,"rawAirSigmet":"WSUS32 KKCI 180355\nSIGC \nCONVECTIVE SIGMET 25C\nVALID UNTIL 0555Z\nMI LH LS LM\nFROM 80NNE SAW-30NNW SSM-60NNE ASP-30E TVC-50NW TVC-80NNE SAW\nAREA TS MOV FROM 29040KT. TOPS ABV FL450.\n\nOUTLOOK VALID 180555-180955\nAREA 1...FROM 30NNE CHE-40ENE MAF-70WNW MRF-ELP-30NNE CHE\nWST ISSUANCES EXPD. REFER TO MOST RECENT ACUS01 KWNS FROM STORM\nPREDICTION CENTER FOR SYNOPSIS AND METEOROLOGICAL DETAILS.\n\nAREA 2...FROM 90N SAW-40NW SSM-70NNE ASP-30WNW GIJ-MSL-DLL-30N\nMCW-50WNW MSP-90N SAW\nWST ISSUANCES EXPD. REFER TO MOST RECENT ACUS01 KWNS FROM STORM\nPREDICTION CENTER FOR SYNOPSIS AND METEOROLOGICAL DETAILS."},"geometry":{"type":"Polygon","coordinates":[[[-86.646,47.586],[-84.592,46.874],[-82.847,45.37],[-84.843,44.668],[-86.389,45.258],[-86.646,47.586]]]}},{"type":"Feature","properties":{"icaoId":"KKCI","airSigmetType":"SIGMET","alphaChar":"C","hazard":"CONVECTIVE","seriesId":"26C","validTimeFrom":"2026-07-18T03:55:00.000Z","validTimeTo":"2026-07-18T05:55:00.000Z","severity":5,"altitudeHi1":45000,"altitudeHi2":60000,"altitudeLow1":null,"altitudeLow2":null,"movementDir":280,"movementSpd":35,"rawAirSigmet":"WSUS32 KKCI 180355\nSIGC \nCONVECTIVE SIGMET 26C\nVALID UNTIL 0555Z\nMI WI MN LM\nFROM 50SSE DLH-50SSW SAW-10ENE GRB-50SW MSP-40ENE RWF-50SSE DLH\nAREA TS MOV FROM 28035KT. TOPS ABV FL450.\n\nOUTLOOK VALID 180555-180955\nAREA 1...FROM 30NNE CHE-40ENE MAF-70WNW MRF-ELP-30NNE CHE\nWST ISSUANCES EXPD. REFER TO MOST RECENT ACUS01 KWNS FROM STORM\nPREDICTION CENTER FOR SYNOPSIS AND METEOROLOGICAL DETAILS.\n\nAREA 2...FROM 90N SAW-40NW SSM-70NNE ASP-30WNW GIJ-MSL-DLL-30N\nMCW-50WNW MSP-90N SAW\nWST ISSUANCES EXPD. REFER TO MOST RECENT ACUS01 KWNS FROM STORM\nPREDICTION CENTER FOR SYNOPSIS AND METEOROLOGICAL DETAILS."},"geometry":{"type":"Polygon","coordinates":[[[-91.74,46.027],[-87.857,45.587],[-87.968,44.625],[-94.055,44.286],[-94.266,44.721],[-91.74,46.027]]]}},{"type":"Feature","properties":{"icaoId":"KKCI","airSigmetType":"SIGMET","alphaChar":"E","hazard":"CONVECTIVE","seriesId":"18E","validTimeFrom":"2026-07-18T03:55:00.000Z","validTimeTo":"2026-07-18T05:55:00.000Z","severity":5,"altitudeHi1":37000,"altitudeHi2":37000,"altitudeLow1":null,"altitudeLow2":null,"movementDir":260,"movementSpd":15,"rawAirSigmet":"WSUS31 KKCI 180355\nSIGE \nCONVECTIVE SIGMET 18E\nVALID UNTIL 0555Z\nPA MD VA WV OH\nFROM 20SSW CLE-20NE CSN-10WSW CSN-10SW HNN-50WSW CLE-20SSW CLE\nAREA DMSHG TS MOV FROM 26015KT. TOPS TO FL370.\n\nOUTLOOK VALID 180555-180955\nFROM 30WNW GIJ-40WSW JST-60SE SAV-160ESE SBY-190ESE ECG-150SSE\nILM-170E PBI-70ENE PBI-120SSE MIA-80WSW EYW-190ESE LEV-30WNW GIJ\nWST ISSUANCES EXPD. REFER TO MOST RECENT ACUS01 KWNS FROM STORM\nPREDICTION CENTER FOR SYNOPSIS AND METEOROLOGICAL DETAILS."},"geometry":{"type":"Polygon","coordinates":[[[-82.019,41.113],[-77.568,38.875],[-78.072,38.575],[-82.184,38.629],[-82.874,41.096],[-82.019,41.113]]]}},{"type":"Feature","properties":{"icaoId":"KKCI","airSigmetType":"SIGMET","alphaChar":"W","hazard":"CONVECTIVE","seriesId":"24W","validTimeFrom":"2026-07-18T03:55:00.000Z","validTimeTo":"2026-07-18T05:55:00.000Z","severity":5,"altitudeHi1":43000,"altitudeHi2":43000,"altitudeLow1":null,"altitudeLow2":null,"movementDir":230,"movementSpd":5,"rawAirSigmet":"WSUS33 KKCI 180355\nSIGW \nCONVECTIVE SIGMET 24W\nVALID UNTIL 0555Z\nUT ID NV\nFROM 40WNW PIH-30NNW BCE-40NNW LAS-70W ELY-20WSW TWF-40WNW PIH\nAREA TS MOV FROM 23005KT. TOPS TO FL430.\n\nOUTLOOK VALID 180555-180955\nAREA 1...FROM 40NNE CHE-ELP-50SSE TUS-INW-40SSW EED-70W ILC-40NNE\nCHE\nWST ISSUANCES EXPD. REFER TO MOST RECENT ACUS01 KWNS FROM STORM\nPREDICTION CENTER FOR SYNOPSIS AND METEOROLOGICAL DETAILS.\n\nAREA 2...FROM 50N GGW-80ENE CZI-30SW CZI-40NNW PIH-70WSW YXC-50SE\nYQL-50N GGW\nWST ISSUANCES EXPD. REFER TO MOST RECENT ACUS01 KWNS FROM STORM\nPREDICTION CENTER FOR SYNOPSIS AND METEOROLOGICAL DETAILS."},"geometry":{"type":"Polygon","coordinates":[[[-113.491,43.121],[-112.545,38.155],[-115.477,36.694],[-116.359,39.29],[-114.906,42.352],[-113.491,43.121]]]}},{"type":"Feature","properties":{"icaoId":"KKCI","airSigmetType":"SIGMET","alphaChar":"W","hazard":"CONVECTIVE","seriesId":"25W","validTimeFrom":"2026-07-18T03:55:00.000Z","validTimeTo":"2026-07-18T05:55:00.000Z","severity":5,"altitudeHi1":45000,"altitudeHi2":60000,"altitudeLow1":null,"altitudeLow2":null,"movementDir":200,"movementSpd":15,"rawAirSigmet":"WSUS33 KKCI 180355\nSIGW \nCONVECTIVE SIGMET 25W\nVALID UNTIL 0555Z\nMT\nFROM 40SSE YXC-40S YQL-40NNE LWT-50ESE DLN-10WSW DLN-40SSE YXC\nAREA SEV EMBD TS MOV FROM 20015KT. TOPS ABV FL450.\nHAIL TO 1 IN POSS.\n\nOUTLOOK VALID 180555-180955\nAREA 1...FROM 40NNE CHE-ELP-50SSE TUS-INW-40SSW EED-70W ILC-40NNE\nCHE\nWST ISSUANCES EXPD. REFER TO MOST RECENT ACUS01 KWNS FROM STORM\nPREDICTION CENTER FOR SYNOPSIS AND METEOROLOGICAL DETAILS.\n\nAREA 2...FROM 50N GGW-80ENE CZI-30SW CZI-40NNW PIH-70WSW YXC-50SE\nYQL-50N GGW\nWST ISSUANCES EXPD. REFER TO MOST RECENT ACUS01 KWNS FROM STORM\nPREDICTION CENTER FOR SYNOPSIS AND METEOROLOGICAL DETAILS."},"geometry":{"type":"Polygon","coordinates":[[[-115.392,48.985],[-112.8,48.965],[-109.232,47.664],[-111.46,44.925],[-112.774,45.184],[-115.392,48.985]]]}},{"type":"Feature","properties":{"icaoId":"KKCI","airSigmetType":"SIGMET","alphaChar":"E","hazard":"CONVECTIVE","seriesId":"19E","validTimeFrom":"2026-07-18T03:55:00.000Z","validTimeTo":"2026-07-18T05:55:00.000Z","severity":5,"altitudeHi1":45000,"altitudeHi2":60000,"altitudeLow1":null,"altitudeLow2":null,"movementDir":40,"movementSpd":15,"rawAirSigmet":"WSUS31 KKCI 180355\nSIGE \nCONVECTIVE SIGMET 19E\nVALID UNTIL 0555Z\nFL GA AL AND FL CSTL WTRS\nFROM 20SW PZD-60WSW SRQ-110WSW SRQ-90S CEW-30W CEW-20SW PZD\nAREA TS MOV FROM 04015KT. TOPS ABV FL450.\n\nOUTLOOK VALID 180555-180955\nFROM 30WNW GIJ-40WSW JST-60SE SAV-160ESE SBY-190ESE ECG-150SSE\nILM-170E PBI-70ENE PBI-120SSE MIA-80WSW EYW-190ESE LEV-30WNW GIJ\nWST ISSUANCES EXPD. REFER TO MOST RECENT ACUS01 KWNS FROM STORM\nPREDICTION CENTER FOR SYNOPSIS AND METEOROLOGICAL DETAILS."},"geometry":{"type":"Polygon","coordinates":[[[-84.565,31.425],[-83.584,27.015],[-84.445,26.686],[-86.68,29.33],[-87.266,30.829],[-84.565,31.425]]]}},{"type":"Feature","properties":{"icaoId":"KKCI","airSigmetType":"SIGMET","alphaChar":"E","hazard":"CONVECTIVE","seriesId":"20E","validTimeFrom":"2026-07-18T03:55:00.000Z","validTimeTo":"2026-07-18T05:55:00.000Z","severity":5,"altitudeHi1":45000,"altitudeHi2":60000,"altitudeLow1":null,"altitudeLow2":null,"movementDir":260,"movementSpd":10,"rawAirSigmet":"WSUS31 KKCI 180355\nSIGE \nCONVECTIVE SIGMET 20E\nVALID UNTIL 0555Z\nTN KY IN IL\nFROM 30SW GIJ-30NNE LOZ-30NW VXV-40SE BNA-30ESE JOT-30SW GIJ\nAREA TS MOV FROM 26010KT. TOPS ABV FL450.\n\nOUTLOOK VALID 180555-180955\nFROM 30WNW GIJ-40WSW JST-60SE SAV-160ESE SBY-190ESE ECG-150SSE\nILM-170E PBI-70ENE PBI-120SSE MIA-80WSW EYW-190ESE LEV-30WNW GIJ\nWST ISSUANCES EXPD. REFER TO MOST RECENT ACUS01 KWNS FROM STORM\nPREDICTION CENTER FOR SYNOPSIS AND METEOROLOGICAL DETAILS."},"geometry":{"type":"Polygon","coordinates":[[[-86.794,41.413],[-83.877,37.495],[-84.331,36.255],[-86.101,35.669],[-87.701,41.356],[-86.794,41.413]]]}},{"type":"Feature","properties":{"icaoId":"KKCI","airSigmetType":"SIGMET","alphaChar":"E","hazard":"CONVECTIVE","seriesId":"21E","validTimeFrom":"2026-07-18T03:55:00.000Z","validTimeTo":"2026-07-18T05:55:00.000Z","severity":5,"altitudeHi1":45000,"altitudeHi2":60000,"altitudeLow1":null,"altitudeLow2":null,"movementDir":150,"movementSpd":10,"rawAirSigmet":"WSUS31 KKCI 180355\nSIGE \nCONVECTIVE SIGMET 21E\nVALID UNTIL 0555Z\nNC SC FL GA\nFROM 40SE VXV-10SSE CAE-40NE CTY-30NE TLH-10ENE ATL-40SE VXV\nAREA TS MOV FROM 15010KT. TOPS ABV FL450.\n\nOUTLOOK VALID 180555-180955\nFROM 30WNW GIJ-40WSW JST-60SE SAV-160ESE SBY-190ESE ECG-150SSE\nILM-170E PBI-70ENE PBI-120SSE MIA-80WSW EYW-190ESE LEV-30WNW GIJ\nWST ISSUANCES EXPD. REFER TO MOST RECENT ACUS01 KWNS FROM STORM\nPREDICTION CENTER FOR SYNOPSIS AND METEOROLOGICAL DETAILS."},"geometry":{"type":"Polygon","coordinates":[[[-83.313,35.429],[-80.971,33.702],[-82.507,30.069],[-83.955,30.915],[-84.25,33.695],[-83.313,35.429]]]}},{"type":"Feature","properties":{"icaoId":"KKCI","airSigmetType":"SIGMET","alphaChar":"W","hazard":"CONVECTIVE","seriesId":"26W","validTimeFrom":"2026-07-18T03:55:00.000Z","validTimeTo":"2026-07-18T05:55:00.000Z","severity":5,"altitudeHi1":42000,"altitudeHi2":42000,"altitudeLow1":null,"altitudeLow2":null,"movementDir":220,"movementSpd":20,"rawAirSigmet":"WSUS33 KKCI 180355\nSIGW \nCONVECTIVE SIGMET 26W\nVALID UNTIL 0555Z\nMT ID\nFROM 50N LKT-40S DLN-50WSW DBS-50ENE BOI-30SSE DNJ-50N LKT\nAREA TS MOV FROM 22020KT. TOPS TO FL420.\n\nOUTLOOK VALID 180555-180955\nAREA 1...FROM 40NNE CHE-ELP-50SSE TUS-INW-40SSW EED-70W ILC-40NNE\nCHE\nWST ISSUANCES EXPD. REFER TO MOST RECENT ACUS01 KWNS FROM STORM\nPREDICTION CENTER FOR SYNOPSIS AND METEOROLOGICAL DETAILS.\n\nAREA 2...FROM 50N GGW-80ENE CZI-30SW CZI-40NNW PIH-70WSW YXC-50SE\nYQL-50N GGW\nWST ISSUANCES EXPD. REFER TO MOST RECENT ACUS01 KWNS FROM STORM\nPREDICTION CENTER FOR SYNOPSIS AND METEOROLOGICAL DETAILS."},"geometry":{"type":"Polygon","coordinates":[[[-114.08,45.855],[-112.55,44.585],[-113.279,43.765],[-115.119,43.865],[-115.941,44.305],[-114.08,45.855]]]}},{"type":"Feature","properties":{"icaoId":"KKCI","airSigmetType":"SIGMET","alphaChar":"W","hazard":"CONVECTIVE","seriesId":"27W","validTimeFrom":"2026-07-18T03:55:00.000Z","validTimeTo":"2026-07-18T05:55:00.000Z","severity":5,"altitudeHi1":43000,"altitudeHi2":43000,"altitudeLow1":null,"altitudeLow2":null,"movementDir":null,"movementSpd":null,"rawAirSigmet":"WSUS33 KKCI 180355\nSIGW \nCONVECTIVE SIGMET 27W\nVALID UNTIL 0555Z\nAZ\nFROM 30SSW DRK-20N PHX-70SW PHX-70NE BZA-30SSW DRK\nAREA TS MOV LTL. TOPS TO FL430.\n\nOUTLOOK VALID 180555-180955\nAREA 1...FROM 40NNE CHE-ELP-50SSE TUS-INW-40SSW EED-70W ILC-40NNE\nCHE\nWST ISSUANCES EXPD. REFER TO MOST RECENT ACUS01 KWNS FROM STORM\nPREDICTION CENTER FOR SYNOPSIS AND METEOROLOGICAL DETAILS.\n\nAREA 2...FROM 50N GGW-80ENE CZI-30SW CZI-40NNW PIH-70WSW YXC-50SE\nYQL-50N GGW\nWST ISSUANCES EXPD. REFER TO MOST RECENT ACUS01 KWNS FROM STORM\nPREDICTION CENTER FOR SYNOPSIS AND METEOROLOGICAL DETAILS."},"geometry":{"type":"Polygon","coordinates":[[[-112.713,34.235],[-112.02,33.762],[-113,32.6],[-113.609,33.592],[-112.713,34.235]]]}},{"type":"Feature","properties":{"icaoId":"KKCI","airSigmetType":"SIGMET","alphaChar":"W","hazard":"CONVECTIVE","seriesId":"28W","validTimeFrom":"2026-07-18T03:55:00.000Z","validTimeTo":"2026-07-18T05:55:00.000Z","severity":5,"altitudeHi1":45000,"altitudeHi2":60000,"altitudeLow1":null,"altitudeLow2":null,"movementDir":null,"movementSpd":null,"rawAirSigmet":"WSUS33 KKCI 180355\nSIGW \nCONVECTIVE SIGMET 28W\nVALID UNTIL 0555Z\nCO NM AZ UT\nFROM 30NW CHE-20NNE CHE-70SSE SJN-20SW INW-30SSW HVE-30NW CHE\nAREA TS MOV LTL. TOPS ABV FL450.\n\nOUTLOOK VALID 180555-180955\nAREA 1...FROM 40NNE CHE-ELP-50SSE TUS-INW-40SSW EED-70W ILC-40NNE\nCHE\nWST ISSUANCES EXPD. REFER TO MOST RECENT ACUS01 KWNS FROM STORM\nPREDICTION CENTER FOR SYNOPSIS AND METEOROLOGICAL DETAILS.\n\nAREA 2...FROM 50N GGW-80ENE CZI-30SW CZI-40NNW PIH-70WSW YXC-50SE\nYQL-50N GGW\nWST ISSUANCES EXPD. REFER TO MOST RECENT ACUS01 KWNS FROM STORM\nPREDICTION CENTER FOR SYNOPSIS AND METEOROLOGICAL DETAILS."},"geometry":{"type":"Polygon","coordinates":[[[-107.78,40.875],[-107.142,40.827],[-108.605,33.34],[-111.086,34.825],[-110.944,37.955],[-107.78,40.875]]]}},{"type":"Feature","properties":{"icaoId":"KKCI","airSigmetType":"SIGMET","alphaChar":"W","hazard":"CONVECTIVE","seriesId":"29W","validTimeFrom":"2026-07-18T03:55:00.000Z","validTimeTo":"2026-07-18T05:55:00.000Z","severity":5,"altitudeHi1":45000,"altitudeHi2":60000,"altitudeLow1":null,"altitudeLow2":null,"movementDir":210,"movementSpd":15,"rawAirSigmet":"WSUS33 KKCI 180355\nSIGW \nCONVECTIVE SIGMET 29W\nVALID UNTIL 0555Z\nMT WY\nFROM 50SSW GGW-60ENE CZI-40SSE BPI-40W BPI-30ENE LWT-50SSW GGW\nAREA TS MOV FROM 21015KT. TOPS ABV FL450.\n\nOUTLOOK VALID 180555-180955\nAREA 1...FROM 40NNE CHE-ELP-50SSE TUS-INW-40SSW EED-70W ILC-40NNE\nCHE\nWST ISSUANCES EXPD. REFER TO MOST RECENT ACUS01 KWNS FROM STORM\nPREDICTION CENTER FOR SYNOPSIS AND METEOROLOGICAL DETAILS.\n\nAREA 2...FROM 50N GGW-80ENE CZI-30SW CZI-40NNW PIH-70WSW YXC-50SE\nYQL-50N GGW\nWST ISSUANCES EXPD. REFER TO MOST RECENT ACUS01 KWNS FROM STORM\nPREDICTION CENTER FOR SYNOPSIS AND METEOROLOGICAL DETAILS."},"geometry":{"type":"Polygon","coordinates":[[[-107.103,47.447],[-105.151,44.374],[-109.768,41.965],[-111.013,42.576],[-108.925,47.24],[-107.103,47.447]]]}},{"type":"Feature","properties":{"icaoId":"KKCI","airSigmetType":"SIGMET","alphaChar":"E","hazard":"CONVECTIVE","seriesId":"22E","validTimeFrom":"2026-07-18T03:55:00.000Z","validTimeTo":"2026-07-18T05:55:00.000Z","severity":5,"altitudeHi1":31000,"altitudeHi2":31000,"altitudeLow1":null,"altitudeLow2":null,"movementDir":270,"movementSpd":5,"rawAirSigmet":"WSUS31 KKCI 180355\nSIGE \nCONVECTIVE SIGMET 22E\nVALID UNTIL 0555Z\nNC CSTL WTRS\nFROM 140E ECG-170E ECG-140ESE ECG-80ESE ECG-140E ECG\nAREA TS MOV FROM 27005KT. TOPS TO FL310.\n\nOUTLOOK VALID 180555-180955\nFROM 30WNW GIJ-40WSW JST-60SE SAV-160ESE SBY-190ESE ECG-150SSE\nILM-170E PBI-70ENE PBI-120SSE MIA-80WSW EYW-190ESE LEV-30WNW GIJ\nWST ISSUANCES EXPD. REFER TO MOST RECENT ACUS01 KWNS FROM STORM\nPREDICTION CENTER FOR SYNOPSIS AND METEOROLOGICAL DETAILS."},"geometry":{"type":"Polygon","coordinates":[[[-73.296,36.215],[-72.673,36.199],[-73.545,35.331],[-74.667,35.732],[-73.296,36.215]]]}},{"type":"Feature","properties":{"icaoId":"KKCI","airSigmetType":"SIGMET","alphaChar":"W","hazard":"CONVECTIVE","seriesId":"30W","validTimeFrom":"2026-07-18T03:55:00.000Z","validTimeTo":"2026-07-18T05:55:00.000Z","severity":5,"altitudeHi1":45000,"altitudeHi2":60000,"altitudeLow1":null,"altitudeLow2":null,"movementDir":190,"movementSpd":10,"rawAirSigmet":"WSUS33 KKCI 180355\nSIGW \nCONVECTIVE SIGMET 30W\nVALID UNTIL 0555Z\nAZ NV CA\nFROM 50ENE LAS-20W DRK-50N BZA-20WNW HEC-50ENE LAS\nAREA TS MOV FROM 19010KT. TOPS ABV FL450.\n\nOUTLOOK VALID 180555-180955\nAREA 1...FROM 40NNE CHE-ELP-50SSE TUS-INW-40SSW EED-70W ILC-40NNE\nCHE\nWST ISSUANCES EXPD. REFER TO MOST RECENT ACUS01 KWNS FROM STORM\nPREDICTION CENTER FOR SYNOPSIS AND METEOROLOGICAL DETAILS.\n\nAREA 2...FROM 50N GGW-80ENE CZI-30SW CZI-40NNW PIH-70WSW YXC-50SE\nYQL-50N GGW\nWST ISSUANCES EXPD. REFER TO MOST RECENT ACUS01 KWNS FROM STORM\nPREDICTION CENTER FOR SYNOPSIS AND METEOROLOGICAL DETAILS."},"geometry":{"type":"Polygon","coordinates":[[[-114.201,36.396],[-112.884,34.699],[-114.6,33.605],[-116.835,34.927],[-114.201,36.396]]]}}]}