{"type":"FeatureCollection","num":26,"validTime":1784354400,"features":[{"type":"Feature","properties":{"product":"SIERRA","hazard":"MT_OBSC","tag":"8E","issueTime":"2026-07-18T02:45:00.000Z","validTime":"2026-07-18T06:00:00.000Z","receiptTime":"2026-07-18T02:34:28.935Z","forecast":3,"dueTo":"MTNS OBSC BY CLDS PCPN BR"},"geometry":{"type":"Polygon","coordinates":[[[-81.9014,38.8872],[-79.8383,37.9893],[-82.2315,34.6199],[-84.4792,33.5798],[-85.1501,34.9226],[-85.0712,36.7683],[-81.9014,38.8872]]]}},{"type":"Feature","properties":{"product":"TANGO","hazard":"TURB-HI","tag":"2W","issueTime":"2026-07-18T02:45:00.000Z","validTime":"2026-07-18T06:00:00.000Z","receiptTime":"2026-07-18T02:52:46.134Z","forecast":3,"severity":"MOD","top":"390","base":"220"},"geometry":{"type":"Polygon","coordinates":[[[-122.7152,49.0121],[-120.8448,48.9452],[-123.7379,44.0411],[-126.7805,43.1358],[-126.5584,45.0395],[-127.9051,48.2506],[-125.0494,48.5182],[-123.4377,48.033],[-122.7152,49.0121]]]}},{"type":"Feature","properties":{"product":"ZULU","hazard":"ICE","tag":"1C","issueTime":"2026-07-18T02:45:00.000Z","validTime":"2026-07-18T06:00:00.000Z","receiptTime":"2026-07-18T02:35:15.523Z","forecast":3,"severity":"MOD","top":"240","base":"FZL","fzltop":"140","fzlbase":"130","dueTo":"ICE"},"geometry":{"type":"Polygon","coordinates":[[[-74.9568,44.4316],[-74.1876,44.393],[-73.9044,44.1238],[-73.5568,43.6991],[-73.5243,43.2232],[-73.9755,42.8977],[-74.4309,42.7126],[-74.8296,42.5849],[-75.4947,42.673],[-76.0675,43.0185],[-75.899,43.5678],[-75.7033,44.1817],[-74.9568,44.4316]]]}},{"type":"Feature","properties":{"product":"SIERRA","hazard":"MT_OBSC","tag":"1E","issueTime":"2026-07-18T02:45:00.000Z","validTime":"2026-07-18T06:00:00.000Z","receiptTime":"2026-07-18T02:34:28.935Z","forecast":3,"dueTo":"FG FU"},"geometry":{"type":"Polygon","coordinates":[[[-76.1553,43.1628],[-74.0275,41.9069],[-75.5821,41.1387],[-76.8695,40.3496],[-79.2763,37.5418],[-80.4546,38.3208],[-79.9603,38.8839],[-81.293,39.5901],[-79.252,42.2108],[-76.1553,43.1628]]]}},{"type":"Feature","properties":{"product":"SIERRA","hazard":"IFR","tag":"3E","issueTime":"2026-07-18T02:45:00.000Z","validTime":"2026-07-18T06:00:00.000Z","receiptTime":"2026-07-18T02:34:28.935Z","forecast":3,"dueTo":"CIG BLW 010 VIS BLW 3SM PCPN BR HZ"},"geometry":{"type":"Polygon","coordinates":[[[-88.4607,48.3159],[-84.9773,46.8917],[-83.8271,45.9743],[-82.3437,45.1058],[-82.232,44.1872],[-82.022,43.3181],[-83.0744,42.5365],[-84.3954,42.6716],[-85.1951,43.2995],[-86.0684,44.7167],[-87.1023,45.3886],[-88.6634,45.8802],[-89.5625,46.4096],[-90.7669,47.2062],[-90.9533,48.1118],[-89.4091,47.9243],[-88.4607,48.3159]]]}},{"type":"Feature","properties":{"product":"SIERRA","hazard":"MT_OBSC","tag":"7E","issueTime":"2026-07-18T02:45:00.000Z","validTime":"2026-07-18T06:00:00.000Z","receiptTime":"2026-07-18T02:34:28.935Z","forecast":3,"dueTo":"MTNS OBSC BY CLDS PCPN BR"},"geometry":{"type":"Polygon","coordinates":[[[-113.2029,49.0034],[-111.3235,47.4335],[-110.7881,47.8177],[-108.1536,46.4359],[-106.5166,44.1125],[-107.0945,43.978],[-107.8049,44.3554],[-108.0746,44.697],[-108.9908,45.2309],[-109.7186,44.9591],[-110.0114,44.3389],[-109.7466,43.0873],[-110.1753,42.5441],[-110.7478,42.6002],[-111.1006,43.0087],[-111.3794,43.559],[-112.0621,44.0989],[-112.6818,44.201],[-113.4657,44.3612],[-114.0827,45.1693],[-113.6294,45.6242],[-112.2306,46.325],[-112.2748,47.0342],[-113.5008,47.4212],[-114.8088,47.9118],[-116.1454,48.9584],[-113.2029,49.0034]]]}},{"type":"Feature","properties":{"product":"ZULU","hazard":"FZLVL","tag":"1C","issueTime":"2026-07-18T02:45:00.000Z","validTime":"2026-07-18T06:00:00.000Z","receiptTime":"2026-07-18T02:35:15.523Z","forecast":3,"level":"160"},"geometry":{"type":"LineString","coordinates":[[-131.202,20.0019],[-129.7619,22.2941],[-127.9867,24.5486],[-125.7474,27.3102],[-123.4365,30.8696],[-121.7814,33.8893],[-121.8867,35.942],[-121.635,37.289],[-121.023,38.3504],[-119.5485,39.7225],[-118.0541,41.4199],[-116.4465,43.0268],[-114.7638,44.9827],[-113.5195,45.8576],[-112.6004,46.2053],[-110.6043,46.7154],[-109.4015,47.4116],[-108.3637,48.1369],[-107.2257,48.6499],[-104.7405,49.1114],[-103.3885,49.2015],[-102.0702,49.0395],[-100.6302,48.5012],[-99.3444,47.832],[-98.2922,47.27],[-97.2477,46.9636],[-96.006,46.8827],[-93.9331,46.6526],[-92.2119,46.1539],[-91.0595,45.2549],[-90.5731,44.2711],[-89.9616,43.4189],[-88.6959,42.8929],[-85.5744,42.6747],[-84.1438,42.1265],[-83.8054,41.1496],[-83.5831,39.9056],[-82.9408,38.935],[-82.2803,38.5921],[-81.3402,38.5383],[-80.0684,38.8005],[-79.0616,38.9352],[-77.4598,38.8237],[-74.9375,38.5971],[-71.896,38.5119],[-69.329,38.1514],[-66.8871,37.2521],[-64.4951,36.3273],[-62.8656,35.9245],[-61.2601,35.7366],[-59.4169,35.3954],[-58.7502,34.7043],[-59.4895,34.1481],[-61.6685,32.8483],[-63.019,31.7855],[-64.1296,30.604],[-63.7086,29.7212],[-62.4518,29.0451],[-60.6299,27.9431],[-59.4874,27.6568],[-58.4594,27.7228],[-56.3256,28.4665]]}},{"type":"Feature","properties":{"product":"ZULU","hazard":"FZLVL","tag":"1C","issueTime":"2026-07-18T02:45:00.000Z","validTime":"2026-07-18T06:00:00.000Z","receiptTime":"2026-07-18T02:35:15.523Z","forecast":3,"level":"080"},"geometry":{"type":"LineString","coordinates":[[-89.4635,61.1211],[-90.848,60.549],[-91.6734,59.7129],[-91.3027,58.9531],[-90.3024,58.0946],[-88.4411,56.7451],[-86.6286,55.5881],[-85.2195,54.772],[-83.581,54.1071],[-82.0687,53.7442],[-80.2268,53.5419],[-78.3444,53.595],[-76.042,53.7688],[-74.2756,53.4897],[-72.8129,52.7753],[-71.0871,52.1252],[-69.3773,51.6932],[-66.9614,51.037],[-64.2257,50.7563],[-61.6231,51.4069],[-58.4676,52.6063],[-57.6171,53.209]]}},{"type":"Feature","properties":{"product":"ZULU","hazard":"FZLVL","tag":"1C","issueTime":"2026-07-18T02:45:00.000Z","validTime":"2026-07-18T06:00:00.000Z","receiptTime":"2026-07-18T02:35:15.523Z","forecast":3,"level":"160"},"geometry":{"type":"LineString","coordinates":[[-103.7466,34.7139],[-104.6451,34.1616],[-105.2567,33.529],[-106.1875,32.1833],[-106.8721,30.8482],[-107.7283,30.0316],[-111.3131,28.917],[-113.2951,28.2778],[-114.7688,27.4564],[-115.6589,26.6708],[-114.3165,26.1781],[-113.4909,25.0807],[-112.8229,24.5118],[-112.1468,24.4201],[-110.8412,24.7439],[-109.5476,25.9286],[-108.6516,26.7262],[-107.6998,28.0813],[-107.1998,29.2966],[-106.828,29.9333],[-106.1429,30.3101],[-103.9664,30.6182],[-102.2895,31.0567],[-100.7982,31.7466],[-100.2521,32.0958],[-99.901,32.656],[-100.0127,33.2437],[-100.928,34.586],[-101.4556,34.9111],[-102.8993,34.9786],[-103.7466,34.7139]]}},{"type":"Feature","properties":{"product":"SIERRA","hazard":"MT_OBSC","tag":"2E","issueTime":"2026-07-18T02:45:00.000Z","validTime":"2026-07-18T06:00:00.000Z","receiptTime":"2026-07-18T02:34:28.935Z","forecast":3,"dueTo":"MTNS OBSC BY CLDS PCPN BR"},"geometry":{"type":"Polygon","coordinates":[[[-121.1863,49.0553],[-119.9057,48.9681],[-120.5576,47.6394],[-121.1074,46.6116],[-121.3427,44.9948],[-122.5877,44.7553],[-124.1,45.3019],[-124.4843,48.284],[-122.7184,48.8692],[-121.1863,49.0553]]]}},{"type":"Feature","properties":{"product":"SIERRA","hazard":"MT_OBSC","tag":"5E","issueTime":"2026-07-18T02:45:00.000Z","validTime":"2026-07-18T06:00:00.000Z","receiptTime":"2026-07-18T02:34:28.935Z","forecast":3,"dueTo":"FG FU"},"geometry":{"type":"Polygon","coordinates":[[[-117.1517,48.0776],[-115.9181,48.0332],[-115.6885,47.3829],[-116.0234,46.107],[-117.5731,44.6216],[-119.1936,43.2037],[-122.2445,41.5134],[-123.1436,42.0666],[-123.2677,42.6671],[-121.4877,44.4709],[-117.1517,48.0776]]]}},{"type":"Feature","properties":{"product":"SIERRA","hazard":"IFR","tag":"4E","issueTime":"2026-07-18T02:45:00.000Z","validTime":"2026-07-18T06:00:00.000Z","receiptTime":"2026-07-18T02:34:28.935Z","forecast":3,"dueTo":"CIG BLW 010 VIS BLW 3SM BR FG"},"geometry":{"type":"Polygon","coordinates":[[[-123.531,38.805],[-122.13,37.959],[-121.3157,36.5513],[-121.3765,35.9565],[-120.6923,35.1326],[-118.8025,34.388],[-117.3081,33.3761],[-116.9959,32.3351],[-118.6084,31.6964],[-120.7841,30.7683],[-122.6601,34.8651],[-123.8061,36.2359],[-124.8541,38.1066],[-124.8061,38.7945],[-123.531,38.805]]]}},{"type":"Feature","properties":{"product":"ZULU","hazard":"FZLVL","tag":"1C","issueTime":"2026-07-18T02:45:00.000Z","validTime":"2026-07-18T06:00:00.000Z","receiptTime":"2026-07-18T02:35:15.523Z","forecast":3,"level":"120"},"geometry":{"type":"LineString","coordinates":[[-142.8723,49.7129],[-141.9506,49.6187],[-141.2623,49.6121],[-139.976,49.7743],[-138.8968,50.1271],[-137.9854,50.6523],[-137.2075,51.3294],[-136.7194,51.8812],[-136.5202,52.1234],[-135.8367,52.9518],[-135.6332,53.1979],[-135.075,53.7335],[-134.2739,54.5089],[-134.1904,54.5994]]}},{"type":"Feature","properties":{"product":"ZULU","hazard":"FZLVL","tag":"1C","issueTime":"2026-07-18T02:45:00.000Z","validTime":"2026-07-18T06:00:00.000Z","receiptTime":"2026-07-18T02:35:15.523Z","forecast":3,"level":"160"},"geometry":{"type":"LineString","coordinates":[[-84.8536,30.9551],[-85.8604,30.6712],[-87.5079,29.0666],[-88.8345,27.5292],[-90.3801,26.4006],[-92.2361,25.6225],[-93.7598,24.2579],[-94.3948,23.469],[-94.521,22.3635],[-94.8996,21.6271],[-95.6967,21.2113],[-96.274,19.0388],[-96.2372,18.2361],[-95.1407,18.1584],[-94.7769,18.6709],[-94.4951,19.694],[-93.9525,20.4207],[-92.6046,20.5182],[-90.8015,20.307],[-88.2307,20.2009],[-86.9329,20.9335],[-85.4484,22.1248],[-83.8251,22.5654],[-81.9464,23.7061],[-80.6558,24.6297],[-79.139,26.1128],[-78.4823,27.2161],[-78.6363,27.9139],[-79.1914,28.6973],[-80.0468,29.3321],[-84.1005,30.8858],[-84.8536,30.9551]]}},{"type":"Feature","properties":{"product":"SIERRA","hazard":"IFR","tag":"2E","issueTime":"2026-07-18T02:45:00.000Z","validTime":"2026-07-18T06:00:00.000Z","receiptTime":"2026-07-18T02:34:28.935Z","forecast":3,"dueTo":"CIG BLW 010 VIS BLW 3SM BR FG"},"geometry":{"type":"Polygon","coordinates":[[[-124.36,48.4703],[-123.7276,46.3104],[-124.3446,42.6091],[-123.9081,41.4428],[-124.1407,39.9343],[-123.5651,38.858],[-124.9424,38.8053],[-126.1757,40.1186],[-126.3261,41.6784],[-125.5509,44.5841],[-125.6644,46.4244],[-126.0492,48.3385],[-124.36,48.4703]]]}},{"type":"Feature","properties":{"product":"SIERRA","hazard":"MT_OBSC","tag":"4E","issueTime":"2026-07-18T02:45:00.000Z","validTime":"2026-07-18T06:00:00.000Z","receiptTime":"2026-07-18T02:34:28.935Z","forecast":3,"dueTo":"MTNS OBSC BY CLDS BR"},"geometry":{"type":"Polygon","coordinates":[[[-122.1458,37.9856],[-120.2957,34.961],[-118.1106,34.3369],[-117.4024,33.588],[-116.8393,32.7106],[-117.4323,32.7668],[-118.5413,34.0757],[-120.6181,34.5655],[-122.7845,37.7455],[-122.1458,37.9856]]]}},{"type":"Feature","properties":{"product":"SIERRA","hazard":"MT_OBSC","tag":"3E","issueTime":"2026-07-18T02:45:00.000Z","validTime":"2026-07-18T06:00:00.000Z","receiptTime":"2026-07-18T02:34:28.935Z","forecast":3,"dueTo":"MTNS OBSC BY CLDS PCPN BR"},"geometry":{"type":"Polygon","coordinates":[[[-112.6507,38.7381],[-112.1583,38.5678],[-111.4474,38.0743],[-110.4729,37.6598],[-109.8638,37.9233],[-109.6619,38.0196],[-108.2619,38.3733],[-107.2851,38.4588],[-106.3117,38.3807],[-105.2245,38.065],[-103.5235,37.2628],[-104.3092,34.3647],[-104.5719,33.6203],[-105.5698,33.4452],[-106.1127,33.0606],[-106.2756,32.328],[-106.3475,31.8376],[-107.4889,31.5832],[-108.7965,31.3635],[-111.0389,31.2935],[-110.5128,32.7515],[-110.948,33.7658],[-111.6918,34.3416],[-113.303,34.9525],[-113.8914,35.5586],[-113.5918,36.0538],[-114.0729,36.6336],[-114.7398,37.2611],[-114.7101,37.6684],[-114.2757,38.1464],[-113.5242,38.5414],[-112.6507,38.7381]]]}},{"type":"Feature","properties":{"product":"SIERRA","hazard":"MT_OBSC","tag":"4E","issueTime":"2026-07-18T02:45:00.000Z","validTime":"2026-07-18T06:00:00.000Z","receiptTime":"2026-07-18T02:34:28.935Z","forecast":3,"dueTo":"MTNS OBSC BY CLDS BR"},"geometry":{"type":"Polygon","coordinates":[[[-124.1943,43.7354],[-123.5841,43.614],[-123.9175,42.5985],[-123.7074,40.8088],[-124.4231,41.0062],[-124.1943,43.7354]]]}},{"type":"Feature","properties":{"product":"ZULU","hazard":"FZLVL","tag":"1C","issueTime":"2026-07-18T02:45:00.000Z","validTime":"2026-07-18T06:00:00.000Z","receiptTime":"2026-07-18T02:35:15.523Z","forecast":3,"level":"120"},"geometry":{"type":"LineString","coordinates":[[-104.1609,60.7396],[-102.5494,60.0017],[-100.3212,58.8318],[-98.2209,57.5437],[-96.4471,56.1543],[-94.6995,54.4881],[-91.6848,51.619],[-89.675,50.7466],[-86.7472,50.6375],[-83.5355,50.2118],[-81.9296,49.8185],[-80.0954,49.2271],[-77.3023,48.0439],[-75.3108,47.0877],[-72.5444,46.079],[-70.5684,45.2378],[-67.9004,44.2393],[-65.6935,43.6771],[-63.5436,43.2667],[-61.0599,43.0256],[-56.927,42.8787],[-54.9041,42.9732],[-53.5381,43.3145],[-52.0333,43.9899],[-51.0185,44.8046],[-50.1344,45.7421],[-48.4501,46.9245]]}},{"type":"Feature","properties":{"product":"SIERRA","hazard":"MT_OBSC","tag":"6E","issueTime":"2026-07-18T02:45:00.000Z","validTime":"2026-07-18T06:00:00.000Z","receiptTime":"2026-07-18T02:34:28.935Z","forecast":3,"dueTo":"MTNS OBSC BY CLDS PCPN BR"},"geometry":{"type":"Polygon","coordinates":[[[-104.8406,31.3299],[-103.695,31.3152],[-102.0679,29.7749],[-103.2488,28.8821],[-105.0481,30.6087],[-104.8406,31.3299]]]}},{"type":"Feature","properties":{"product":"ZULU","hazard":"FZLVL","tag":"1C","issueTime":"2026-07-18T02:45:00.000Z","validTime":"2026-07-18T06:00:00.000Z","receiptTime":"2026-07-18T02:35:15.523Z","forecast":3,"level":"040"},"geometry":{"type":"LineString","coordinates":[[-81.4356,57.0609],[-82.4989,56.4361],[-82.1684,56.0819],[-80.922,55.6845],[-80.0443,55.8348],[-80.1601,56.6176],[-81.2564,57.0182],[-81.406,57.0614],[-81.4356,57.0609]]}},{"type":"Feature","properties":{"product":"ZULU","hazard":"FZLVL","tag":"1C","issueTime":"2026-07-18T02:45:00.000Z","validTime":"2026-07-18T06:00:00.000Z","receiptTime":"2026-07-18T02:35:15.523Z","forecast":3,"level":"120"},"geometry":{"type":"LineString","coordinates":[[-129.4103,52.2687],[-130.11,51.3418],[-130.3494,50.5446],[-130.2506,49.7105],[-129.9373,48.9271],[-129.0647,48.0108],[-128.6139,47.6735],[-127.3701,47.2785],[-126.1852,47.3123],[-124.1417,47.9763],[-123.2234,48.5528],[-122.4206,49.4214],[-121.9887,50.8915],[-122.2418,51.6157],[-122.9541,52.3387],[-124.2936,52.9599],[-126.3281,53.28],[-127.2443,53.2675],[-128.4555,52.8961],[-129.4103,52.2687]]}},{"type":"Feature","properties":{"product":"ZULU","hazard":"FZLVL","tag":"1C","issueTime":"2026-07-18T02:45:00.000Z","validTime":"2026-07-18T06:00:00.000Z","receiptTime":"2026-07-18T02:35:15.523Z","forecast":3,"level":"160"},"geometry":{"type":"LineString","coordinates":[[-86.9019,36.6937],[-88.1803,36.5671],[-89.5824,36.6396],[-91.6411,37.0346],[-92.4472,36.7616],[-93.3137,36.0653],[-93.6694,35.6642],[-93.9069,34.5948],[-93.0911,33.5799],[-92.444,32.2601],[-92.1459,31.3862],[-91.6646,30.7408],[-90.6435,30.5242],[-89.2905,31.586],[-88.126,32.694],[-86.8919,33.7887],[-85.7987,35.6591],[-85.7788,36.4959],[-86.8267,36.7086],[-86.9019,36.6937]]}},{"type":"Feature","properties":{"product":"SIERRA","hazard":"IFR","tag":"1E","issueTime":"2026-07-18T02:45:00.000Z","validTime":"2026-07-18T06:00:00.000Z","receiptTime":"2026-07-18T02:34:28.935Z","forecast":3,"dueTo":"CIG BLW 010 VIS BLW 3SM HZ FU"},"geometry":{"type":"Polygon","coordinates":[[[-71.9429,45.002],[-71.9031,44.9888],[-71.4697,44.1913],[-71.7734,42.866],[-72.2822,41.6969],[-72.6103,40.6475],[-72.6216,39.4682],[-72.48,38.2784],[-72.5978,37.9323],[-73.522,36.5634],[-74.8561,36.1029],[-76.0113,36.3466],[-77.3636,37.3686],[-79.2495,38.0903],[-80.9652,38.7455],[-82.0806,39.1704],[-82.8883,39.8551],[-82.8476,40.9617],[-82.3448,41.5824],[-78.9979,42.7917],[-78.9261,43.646],[-76.9594,43.7085],[-75.1457,44.9346],[-71.9429,45.002]]]}},{"type":"Feature","properties":{"product":"TANGO","hazard":"TURB-LO","tag":"1W","issueTime":"2026-07-18T02:45:00.000Z","validTime":"2026-07-18T06:00:00.000Z","receiptTime":"2026-07-18T02:52:46.134Z","forecast":3,"severity":"MOD","top":"100","base":"SFC"},"geometry":{"type":"Polygon","coordinates":[[[-75.3829,44.7191],[-74.7819,43.957],[-75.1517,43.2955],[-76.0309,43.1464],[-77.0737,43.141],[-77.7153,43.3435],[-78.1404,43.5938],[-76.9338,43.7179],[-75.3829,44.7191]]]}},{"type":"Feature","properties":{"product":"SIERRA","hazard":"IFR","tag":"6E","issueTime":"2026-07-18T02:45:00.000Z","validTime":"2026-07-18T06:00:00.000Z","receiptTime":"2026-07-18T02:34:28.935Z","forecast":3,"dueTo":"CIG BLW 010 VIS BLW 3SM HZ FU"},"geometry":{"type":"Polygon","coordinates":[[[-120.6066,45.2241],[-118.1342,44.4368],[-118.9721,43.3801],[-121.0494,43.8285],[-120.6066,45.2241]]]}}]}